start=new Date('2022-03-06T00:00:00.000Z').valueOf();
sats=[{"EPOCH":"2022-03-05T22:00:01.999584","TLE_LINE2":"2 50205  53.2135 338.8936 0003510   7.0940 238.2122 15.73243377 15066","EPHEMERIS_TYPE":"0","RA_OF_ASC_NODE":"338.8936","INCLINATION":"53.2135","MEAN_ANOMALY":"238.2122","FILE":"3346474","REF_FRAME":"TEME","LAUNCH_DATE":"2021-12-18","NORAD_CAT_ID":"50205","MEAN_MOTION_DDOT":"0.0000000000000","PERIAPSIS":"347.275","RCS_SIZE":"LARGE","MEAN_MOTION_DOT":"-0.00092993","OBJECT_NAME":"STARLINK-3260","CLASSIFICATION_TYPE":"U","GP_ID":"197995986","APOAPSIS":"351.998","COUNTRY_CODE":"US","DECAY_DATE":null,"ARG_OF_PERICENTER":"7.0940","MEAN_MOTION":"15.73243377","ELEMENT_SET_NO":"999","TLE_LINE1":"1 50205U 21125BB  22064.91668981 -.00092993  00000-0 -66396-3 0  9992","SITE":"AFWTR","SEMIMAJOR_AXIS":"6727.772","OBJECT_TYPE":"PAYLOAD","PERIOD":"91.531","BSTAR":"-0.00066396000000","REV_AT_EPOCH":"1506","MEAN_ELEMENT_THEORY":"SGP4","CENTER_NAME":"EARTH","TIME_SYSTEM":"UTC","ECCENTRICITY":"0.00035100","OBJECT_ID":"2021-125BB"},{"ECCENTRICITY":"0.00010560","OBJECT_ID":"2021-125BC","BSTAR":"-0.00686010000000","REV_AT_EPOCH":"371","MEAN_ELEMENT_THEORY":"SGP4","CENTER_NAME":"EARTH","TIME_SYSTEM":"UTC","OBJECT_TYPE":"PAYLOAD","PERIOD":"91.834","SITE":"AFWTR","SEMIMAJOR_AXIS":"6742.607","TLE_LINE1":"1 50206U 21125BC  22064.91668981 -.00713109  00000-0 -68601-2 0  9992","ELEMENT_SET_NO":"999","DECAY_DATE":null,"MEAN_MOTION":"15.68054029","ARG_OF_PERICENTER":"34.5988","CLASSIFICATION_TYPE":"U","GP_ID":"198020163","APOAPSIS":"365.184","COUNTRY_CODE":"US","RCS_SIZE":"LARGE","MEAN_MOTION_DOT":"-0.00713109","OBJECT_NAME":"STARLINK-3258","PERIAPSIS":"363.760","MEAN_MOTION_DDOT":"0.0000000000000","REF_FRAME":"TEME","FILE":"3346512","NORAD_CAT_ID":"50206","LAUNCH_DATE":"2021-12-18","INCLINATION":"53.2177","MEAN_ANOMALY":"215.6267","EPOCH":"2022-03-05T22:00:01.999584","TLE_LINE2":"2 50206  53.2177 342.6172 0001056  34.5988 215.6267 15.68054029  3714","EPHEMERIS_TYPE":"0","RA_OF_ASC_NODE":"342.6172"},{"ELEMENT_SET_NO":"999","TLE_LINE1":"1 50207U 21125BD  22064.91668981 -.00716407  00000-0 -69271-2 0  9991","SITE":"AFWTR","SEMIMAJOR_AXIS":"6742.944","OBJECT_TYPE":"PAYLOAD","PERIOD":"91.840","REV_AT_EPOCH":"371","BSTAR":"-0.00692710000000","MEAN_ELEMENT_THEORY":"SGP4","CENTER_NAME":"EARTH","TIME_SYSTEM":"UTC","ECCENTRICITY":"0.00015010","OBJECT_ID":"2021-125BD","EPOCH":"2022-03-05T22:00:01.999584","TLE_LINE2":"2 50207  53.2177 342.6211 0001501  40.4354 206.4477 15.67936448  3711","EPHEMERIS_TYPE":"0","RA_OF_ASC_NODE":"342.6211","INCLINATION":"53.2177","MEAN_ANOMALY":"206.4477","REF_FRAME":"TEME","FILE":"3346512","LAUNCH_DATE":"2021-12-18","NORAD_CAT_ID":"50207","MEAN_MOTION_DDOT":"0.0000000000000","PERIAPSIS":"363.797","RCS_SIZE":"LARGE","OBJECT_NAME":"STARLINK-3262","MEAN_MOTION_DOT":"-0.00716407","CLASSIFICATION_TYPE":"U","GP_ID":"198020414","COUNTRY_CODE":"US","APOAPSIS":"365.821","DECAY_DATE":null,"MEAN_MOTION":"15.67936448","ARG_OF_PERICENTER":"40.4354"},{"CENTER_NAME":"EARTH","TIME_SYSTEM":"UTC","MEAN_ELEMENT_THEORY":"SGP4","BSTAR":"-0.00942360000000","REV_AT_EPOCH":"373","ECCENTRICITY":"0.00018560","OBJECT_ID":"2022-001A","ELEMENT_SET_NO":"999","TLE_LINE1":"1 50803U 22001A   22064.91668981 -.00715034  00000-0 -94236-2 0  9991","SITE":"AFETR","SEMIMAJOR_AXIS":"6765.358","PERIOD":"92.299","OBJECT_TYPE":"PAYLOAD","PERIAPSIS":"385.967","OBJECT_NAME":"STARLINK-3321","RCS_SIZE":"LARGE","MEAN_MOTION_DOT":"-0.00715034","APOAPSIS":"388.478","GP_ID":"198020224","COUNTRY_CODE":"US","CLASSIFICATION_TYPE":"U","ARG_OF_PERICENTER":"35.0672","MEAN_MOTION":"15.60150961","DECAY_DATE":null,"EPHEMERIS_TYPE":"0","TLE_LINE2":"2 50803  53.2176 272.3813 0001856  35.0672 111.1601 15.60150961  3739","RA_OF_ASC_NODE":"272.3813","EPOCH":"2022-03-05T22:00:01.999584","MEAN_ANOMALY":"111.1601","INCLINATION":"53.2176","NORAD_CAT_ID":"50803","LAUNCH_DATE":"2022-01-06","FILE":"3346512","REF_FRAME":"TEME","MEAN_MOTION_DDOT":"0.0000000000000"},{"RCS_SIZE":"LARGE","MEAN_MOTION_DOT":"0.00039327","OBJECT_NAME":"STARLINK-3323","PERIAPSIS":"348.506","DECAY_DATE":null,"MEAN_MOTION":"15.73162797","ARG_OF_PERICENTER":"28.4849","CLASSIFICATION_TYPE":"U","GP_ID":"198020475","COUNTRY_CODE":"US","APOAPSIS":"351.227","INCLINATION":"53.2146","MEAN_ANOMALY":"319.5909","EPOCH":"2022-03-05T22:00:01.999584","EPHEMERIS_TYPE":"0","TLE_LINE2":"2 50804  53.2146 271.9442 0002022  28.4849 319.5909 15.73162797  3715","RA_OF_ASC_NODE":"271.9442","MEAN_MOTION_DDOT":"0.0000000000000","FILE":"3346512","REF_FRAME":"TEME","NORAD_CAT_ID":"50804","LAUNCH_DATE":"2022-01-06","BSTAR":"0.00028375000000","REV_AT_EPOCH":"371","MEAN_ELEMENT_THEORY":"SGP4","CENTER_NAME":"EARTH","TIME_SYSTEM":"UTC","OBJECT_ID":"2022-001B","ECCENTRICITY":"0.00020220","TLE_LINE1":"1 50804U 22001B   22064.91668981  .00039327  00000-0  28375-3 0  9996","ELEMENT_SET_NO":"999","OBJECT_TYPE":"PAYLOAD","PERIOD":"91.535","SITE":"AFETR","SEMIMAJOR_AXIS":"6728.001"},{"OBJECT_ID":"2022-001C","ECCENTRICITY":"0.00019160","CENTER_NAME":"EARTH","TIME_SYSTEM":"UTC","BSTAR":"0.00019468000000","REV_AT_EPOCH":"371","MEAN_ELEMENT_THEORY":"SGP4","SITE":"AFETR","SEMIMAJOR_AXIS":"6727.928","PERIOD":"91.534","OBJECT_TYPE":"PAYLOAD","ELEMENT_SET_NO":"999","TLE_LINE1":"1 50805U 22001C   22064.91668981  .00026776  00000-0  19468-3 0  9994","APOAPSIS":"351.082","GP_ID":"198019723","COUNTRY_CODE":"US","CLASSIFICATION_TYPE":"U","ARG_OF_PERICENTER":"36.5399","MEAN_MOTION":"15.73188574","DECAY_DATE":null,"PERIAPSIS":"348.504","MEAN_MOTION_DOT":"0.00026776","RCS_SIZE":"LARGE","OBJECT_NAME":"STARLINK-3333","LAUNCH_DATE":"2022-01-06","NORAD_CAT_ID":"50805","REF_FRAME":"TEME","FILE":"3346512","MEAN_MOTION_DDOT":"0.0000000000000","TLE_LINE2":"2 50805  53.2146 271.9431 0001916  36.5399 312.1855 15.73188574  3715","EPHEMERIS_TYPE":"0","RA_OF_ASC_NODE":"271.9431","EPOCH":"2022-03-05T22:00:01.999584","INCLINATION":"53.2146","MEAN_ANOMALY":"312.1855"},{"MEAN_MOTION_DOT":"-0.00039325","RCS_SIZE":"LARGE","OBJECT_NAME":"STARLINK-3335","PERIAPSIS":"348.654","DECAY_DATE":null,"ARG_OF_PERICENTER":"32.2166","MEAN_MOTION":"15.73201339","CLASSIFICATION_TYPE":"U","COUNTRY_CODE":"US","GP_ID":"197996131","APOAPSIS":"350.859","MEAN_ANOMALY":"317.1357","INCLINATION":"53.2133","EPOCH":"2022-03-05T22:00:01.999584","EPHEMERIS_TYPE":"0","TLE_LINE2":"2 50806  53.2133 271.9412 0001639  32.2166 317.1357 15.73201339 10432","RA_OF_ASC_NODE":"271.9412","MEAN_MOTION_DDOT":"0.0000000000000","FILE":"3346491","REF_FRAME":"TEME","NORAD_CAT_ID":"50806","LAUNCH_DATE":"2022-01-06","BSTAR":"-0.00027705000000","REV_AT_EPOCH":"1043","MEAN_ELEMENT_THEORY":"SGP4","TIME_SYSTEM":"UTC","CENTER_NAME":"EARTH","OBJECT_ID":"2022-001D","ECCENTRICITY":"0.00016390","TLE_LINE1":"1 50806U 22001D   22064.91668981 -.00039325  00000-0 -27705-3 0  9994","ELEMENT_SET_NO":"999","OBJECT_TYPE":"PAYLOAD","PERIOD":"91.533","SEMIMAJOR_AXIS":"6727.891","SITE":"AFETR"},{"BSTAR":"-0.00038018000000","REV_AT_EPOCH":"371","MEAN_ELEMENT_THEORY":"SGP4","CENTER_NAME":"EARTH","TIME_SYSTEM":"UTC","OBJECT_ID":"2022-001E","ECCENTRICITY":"0.00016650","ELEMENT_SET_NO":"999","TLE_LINE1":"1 50807U 22001E   22064.91668981 -.00053684  00000-0 -38018-3 0  9998","SITE":"AFETR","SEMIMAJOR_AXIS":"6727.839","OBJECT_TYPE":"PAYLOAD","PERIOD":"91.532","PERIAPSIS":"348.584","MEAN_MOTION_DOT":"-0.00053684","RCS_SIZE":"LARGE","OBJECT_NAME":"STARLINK-3353","CLASSIFICATION_TYPE":"U","COUNTRY_CODE":"US","GP_ID":"198020724","APOAPSIS":"350.824","DECAY_DATE":null,"MEAN_MOTION":"15.73219724","ARG_OF_PERICENTER":"41.4565","EPOCH":"2022-03-05T22:00:01.999584","EPHEMERIS_TYPE":"0","TLE_LINE2":"2 50807  53.2142 271.9339 0001665  41.4565 310.4332 15.73219724  3714","RA_OF_ASC_NODE":"271.9339","INCLINATION":"53.2142","MEAN_ANOMALY":"310.4332","REF_FRAME":"TEME","FILE":"3346512","NORAD_CAT_ID":"50807","LAUNCH_DATE":"2022-01-06","MEAN_MOTION_DDOT":"0.0000000000000"},{"BSTAR":"0.00039816000000","REV_AT_EPOCH":"371","MEAN_ELEMENT_THEORY":"SGP4","TIME_SYSTEM":"UTC","CENTER_NAME":"EARTH","OBJECT_ID":"2022-001F","ECCENTRICITY":"0.00022900","ELEMENT_SET_NO":"999","TLE_LINE1":"1 50808U 22001F   22064.91668981  .00055558  00000-0  39816-3 0  9996","SEMIMAJOR_AXIS":"6727.985","SITE":"AFETR","OBJECT_TYPE":"PAYLOAD","PERIOD":"91.535","PERIAPSIS":"348.309","RCS_SIZE":"LARGE","MEAN_MOTION_DOT":"0.00055558","OBJECT_NAME":"STARLINK-3355","CLASSIFICATION_TYPE":"U","APOAPSIS":"351.390","GP_ID":"198020975","COUNTRY_CODE":"US","DECAY_DATE":null,"ARG_OF_PERICENTER":"28.5306","MEAN_MOTION":"15.73168631","EPOCH":"2022-03-05T22:00:01.999584","TLE_LINE2":"2 50808  53.2139 271.9386 0002290  28.5306 322.0873 15.73168631  3716","RA_OF_ASC_NODE":"271.9386","EPHEMERIS_TYPE":"0","MEAN_ANOMALY":"322.0873","INCLINATION":"53.2139","FILE":"3346512","REF_FRAME":"TEME","NORAD_CAT_ID":"50808","LAUNCH_DATE":"2022-01-06","MEAN_MOTION_DDOT":"0.0000000000000"},{"NORAD_CAT_ID":"50809","LAUNCH_DATE":"2022-01-06","REF_FRAME":"TEME","FILE":"3346225","MEAN_MOTION_DDOT":"0.0000000000000","TLE_LINE2":"2 50809  53.2152 271.9391 0001613  32.3807 317.6575 15.73217945 10445","EPHEMERIS_TYPE":"0","RA_OF_ASC_NODE":"271.9391","EPOCH":"2022-03-05T22:00:01.999584","INCLINATION":"53.2152","MEAN_ANOMALY":"317.6575","COUNTRY_CODE":"US","GP_ID":"197989518","APOAPSIS":"350.794","CLASSIFICATION_TYPE":"U","ARG_OF_PERICENTER":"32.3807","MEAN_MOTION":"15.73217945","DECAY_DATE":null,"PERIAPSIS":"348.624","RCS_SIZE":"LARGE","MEAN_MOTION_DOT":"-0.00075445","OBJECT_NAME":"STARLINK-3232","SEMIMAJOR_AXIS":"6727.844","SITE":"AFETR","PERIOD":"91.532","OBJECT_TYPE":"PAYLOAD","ELEMENT_SET_NO":"999","TLE_LINE1":"1 50809U 22001G   22064.91668981 -.00075445  00000-0 -53752-3 0  9991","ECCENTRICITY":"0.00016130","OBJECT_ID":"2022-001G","TIME_SYSTEM":"UTC","CENTER_NAME":"EARTH","MEAN_ELEMENT_THEORY":"SGP4","BSTAR":"-0.00053752000000","REV_AT_EPOCH":"1044"}];
